1 32394U 07065B   10340.43141429 -.00000049 +00000-0 +10000-3 0  9993
2 32394 065.2957 025.0843 0031156 279.3124 247.0189 02.14142595022876
1 32394U 07065B   10341.27001258 -.00000051  00000-0  10000-3 0  9994
2 32394 065.2962 025.0554 0031162 279.2903 173.5232 02.14142592 22893
1 32394U 07065B   10342.66331007 -.00000056  00000-0  10000-3 0  9991
2 32394 065.2969 025.0076 0031168 279.3042 167.6142 02.14142607 22925
1 32394U 07065B   10342.75313583 -.00000057 +00000-0 +10000-3 0  9991
2 32394 065.2969 025.0045 0031177 279.2990 236.8667 02.14142605022921
1 32394U 07065B   10343.67543354 -.00000060  00000-0  10000-3 0  9998
2 32394 065.2972 024.9727 0031204 279.3103 227.8624 02.14142608 22946
1 32394U 07065B   10344.88940440 -.00000062  00000-0  10000-3 0  9991
2 32394 065.2979 024.9313 0031207 279.3150 083.7183 02.14142619 22973
1 32394U 07065B   10344.88940440 -.00000062 +00000-0 +10000-3 0  9991
2 32394 065.2979 024.9313 0031207 279.3150 083.7183 02.14142619022973
1 32394U 07065B   10345.78975241 -.00000062  00000-0  10000-3 0  9998
2 32394 065.3044 024.9019 0023579 296.0717 039.9252 02.13753360 22989
1 32394U 07065B   10345.81919814 -.00000062  00000-0  10000-3 0  9996
2 32394 065.3001 024.9019 0023620 297.4978 061.1648 02.13767985 22987
1 32394U 07065B   10346.05238098 -.00000061 +00000-0 +10000-3 0  9990
2 32394 065.3003 024.8939 0023632 297.4672 240.6430 02.13767637022991
1 32394U 07065B   10347.21320927 -.00000057  00000-0  10000-3 0  9997
2 32394 065.3002 024.8534 0018013 326.6043 023.6685 02.13379843 23018
1 32394U 07065B   10347.28127130 -.00000057  00000-0  10000-3 0  9995
2 32394 065.3009 024.8536 0018036 326.8063 075.7551 02.13382466 23022
1 32394U 07065B   10347.80728333 -.00000054 +00000-0 +10000-3 0  9992
2 32394 065.2998 024.8356 0018243 326.6187 120.0100 02.13382498023033
1 32394U 07065B   10349.71057708 -.00000040  00000-0  10000-3 0  9990
2 32394 065.3076 024.7738 0020017 347.6278 119.3954 02.13141514 23074
1 32394U 07065B   10349.71057708 -.00000040 +00000-0 +10000-3 0  9990
2 32394 065.3086 024.7762 0019958 347.7796 119.2473 02.13142071023074
1 32394U 07065B   10350.08465087 -.00000037  00000-0  10000-3 0  9991
2 32394 065.2990 024.7344 0018536 353.0744 040.9360 02.13102151 23088
1 32394U 07065B   10350.50960137  .00000000  00000-0  10000-3 0  9993
2 32394 065.2980 024.7347 0020203 355.2292 004.8240 02.13124547 23096
1 32394U 07065B   10350.63951784 -.00000032  00000-0  10000-3 0  9991
2 32394 065.3025 024.7386 0018905 352.1239 107.5553 02.13104537 23098
1 32394U 07065B   10351.63783677 -.00000025 +00000-0 +10000-3 0  9998
2 32394 065.3039 024.7074 0019027 352.0997 153.4540 02.13103616023119
1 32394U 07065B   10352.37203972 -.00000020  00000-0  10000-3 0  9990
2 32394 065.3039 024.6805 0019185 352.2172 356.5907 02.13103401 23128
1 32394U 07065B   10352.57246428 -.00000019 +00000-0 +10000-3 0  9993
2 32394 065.3041 024.6748 0019158 352.1978 150.3699 02.13103474023139
1 32394U 07065B   10353.51249755 -.00000015  00000-0  10000-3 0  9990
2 32394 065.3045 024.6425 0019213 352.1417 151.5877 02.13103403 23150
1 32394U 07065B   10354.45834858 -.00000012 +00000-0 +10000-3 0  9995
2 32394 065.3048 024.6091 0019215 352.1488 157.2069 02.13103412023170
1 32394U 07065B   10355.24248990 -.00000012  00000-0  10000-3 0  9999
2 32394 065.3051 024.5818 0019220 352.1741 038.7480 02.13103351 23192
1 32394U 07065B   10356.75328225 -.00000015  00000-0  10000-3 0  9999
2 32394 065.3060 024.5294 0019234 352.2471 117.7023 02.13103210 23225
1 32394U 07065B   10357.19420164 -.00000017 +00000-0 +10000-3 0  9995
2 32394 065.3062 024.5145 0019215 352.2103 095.9991 02.13103269023239
1 32394U 07065B   10358.06205137 -.00000021  00000-0  10000-3 0  9998
2 32394 065.3066 024.4850 0019212 352.2224 041.7719 02.13103251 23256
1 32394U 07065B   10358.62360022 -.00000024 +00000-0 +10000-3 0  9998
2 32394 065.3072 024.4665 0019233 352.0548 112.7428 02.13103357023261
1 32394U 07065B   10359.61523053 -.00000029  00000-0  10000-3 0  9998
2 32394 065.3078 024.4329 0019256 352.0637 153.4793 02.13103349 23288
1 32394U 07065B   10360.54984441 -.00000033 +00000-0 +10000-3 0  9999
2 32394 065.3083 024.4012 0019277 351.9915 150.5560 02.13103348023305
1 32394U 07065B   10360.95347354 -.00000034  00000-0  10000-3 0  9991
2 32394 065.3086 024.3874 0019270 351.9784 100.2199 02.13103344 23317
1 32394U 07065B   10361.48988236 -.00000036 +00000-0 +10000-3 0  9992
2 32394 065.3088 024.3691 0019280 351.9478 151.7650 02.13103326023321
1 32394U 07065B   10362.25087032 -.00000036  00000-0  10000-3 0  9992
2 32394 065.3091 024.3432 0019255 351.9282 015.5894 02.13103322 23348
1 32394U 07065B   10362.45073250 -.00000036 +00000-0 +10000-3 0  9991
2 32394 065.3094 024.3365 0019364 351.9513 168.8915 02.13103292023346
1 32394U 07065B   10363.38743807 -.00000035  00000-0  10000-3 0  9995
2 32394 065.3100 024.3046 0019327 351.8551 167.5980 02.13103306 23366
1 32394U 07065B   10364.19167541 -.00000034 +00000-0 +10000-3 0  9999
2 32394 065.3104 024.2771 0019325 351.8551 064.5821 02.13103304023382
1 32394U 07065B   10365.13018799 -.00000032  00000-0  10000-3 0  9992
2 32394 065.3109 024.2452 0019331 351.8633 064.5690 02.13103295 23407
1 32394U 07065B   10365.67094722 -.00000032 +00000-0 +10000-3 0  9991
2 32394 065.3112 024.2268 0019322 351.8535 119.4311 02.13103289023411
1 32394U 07065B   11001.66347336 -.00000032  00000-0  10000-3 0  9990
2 32394 065.3115 024.1929 0019319 351.8185 160.8984 02.13103271 23433
1 32394U 07065B   11002.55948594 -.00000033 +00000-0 +10000-3 0  9993
2 32394 065.3120 024.1623 0019314 351.8196 128.2879 02.13103262023450
1 32394U 07065B   11003.34413414 -.00000036  00000-0  10000-3 0  9992
2 32394 065.3124 024.1354 0019351 351.8245 010.2385 02.13103261 23474
1 32394U 07065B   11003.47304705 -.00000036 +00000-0 +10000-3 0  9998
2 32394 065.3125 024.1310 0019351 351.8247 109.1361 02.13103262023472
1 32394U 07065B   11004.38779145 -.00000040  00000-0  10000-3 0  9998
2 32394 065.3129 024.0998 0019351 351.8220 090.9001 02.13103264 23490
1 32394U 07065B   11004.46728368 -.00000040 +00000-0 +10000-3 0  9998
2 32394 065.3129 024.0971 0019354 351.8112 151.8945 02.13103261023495
1 32394U 07065B   11005.43573581 -.00000044  00000-0  10000-3 0  9995
2 32394 065.3134 024.0642 0019411 351.8068 174.8623 02.13103258 23517
1 32394U 07065B   11006.68669231 -.00000048  00000-0  10000-3 0  9995
2 32394 065.3141 024.0215 0019423 351.7618 054.5999 02.13103273 23544
1 32394U 07065B   11007.72569046 -.00000049  00000-0  10000-3 0  9995
2 32394 065.3148 023.9861 0019528 351.8025 131.6437 02.13103291 23561
1 32394U 07065B   11008.65552005 -.00000048 +00000-0 +10000-3 0  9994
2 32394 065.3152 023.9546 0019501 351.7569 125.0244 02.13103298023581
1 32394U 07065B   11009.04608095 -.00000046  00000-0  10000-3 0  9997
2 32394 065.3154 023.9411 0019532 351.7914 064.6152 02.13103306 23599
1 32394U 07065B   11009.56513128 -.00000044 +00000-0 +10000-3 0  9994
2 32394 065.3157 023.9234 0019547 351.7517 102.8532 02.13103311023605
1 32394U 07065B   11010.51393694 -.00000039  00000-0  10000-3 0  9999
2 32394 065.3161 023.8911 0019550 351.7551 110.7420 02.13103314 23622
1 32394U 07065B   11010.57002300 -.00000038 +00000-0 +10000-3 0  9995
2 32394 065.3161 023.8891 0019549 351.7531 153.7714 02.13103313023627
1 32394U 07065B   11011.50462881 -.00000032 +00000-0 +10000-3 0  9997
2 32394 065.3164 023.8571 0019562 351.7118 150.8118 02.13103325023642
1 32394U 07065B   11011.87900818 -.00000029  00000-0  10000-3 0  9990
2 32394 065.3165 023.8443 0019568 351.7085 078.0267 02.13103329 23651
1 32394U 07065B   11012.82963971 -.00000022 +00000-0 +10000-3 0  9998
2 32394 065.3170 023.8121 0019563 351.6863 087.3425 02.13103339023670
1 32394U 07065B   11013.15853684 -.00000019  00000-0  10000-3 0  9990
2 32394 065.3169 023.8002 0019615 351.7593 339.5881 02.13103335 23679
1 32394U 07065B   11013.78024303 -.00000015 +00000-0 +10000-3 0  9993
2 32394 065.3172 023.7789 0019616 351.7567 096.5439 02.13103346023699
1 32394U 07065B   11014.64958833 -.00000010 +00000-0 +10000-3 0  9998
2 32394 065.3177 023.7496 0019654 351.7103 043.5235 02.13103358023719
1 32394U 07065B   11015.67900938 -.00000005  00000-0  10000-3 0  9999
2 32394 065.3181 023.7145 0019721 351.6277 113.3442 02.13103372 23735
1 32394U 07065B   11016.63216791 -.00000003 +00000-0 +10000-3 0  9991
2 32394 065.3187 023.6820 0019754 351.6245 124.5797 02.13103385023754
1 32394U 07065B   11017.06358230 -.00000003  00000-0  10000-3 0  9994
2 32394 065.3189 023.6675 0019767 351.6000 095.5713 02.13103395 23764
1 32394U 07065B   11017.55962587 -.00000003 +00000-0 +10000-3 0  9994
2 32394 065.3191 023.6504 0019829 351.6595 116.0605 02.13103414023778
1 32394U 07065B   11018.42652492 -.00000004  00000-0  10000-3 0  9993
2 32394 065.3195 023.6209 0019853 351.6799 061.0970 02.13103431 23792
1 32394U 07065B   11018.54741882 -.00000005 +00000-0 +10000-3 0  9999
2 32394 065.3195 023.6169 0019855 351.6352 153.8878 02.13103440023791
1 32394U 07065B   11019.42694083 -.00000008  00000-0  10000-3 0  9990
2 32394 065.3200 023.5868 0019903 351.6560 108.6074 02.13103447 23814
1 32394U 07065B   11019.82780528 -.00000010 +00000-0 +10000-3 0  9997
2 32394 065.3202 023.5733 0019916 351.6173 056.1763 02.13103455023823
1 32394U 07065B   11020.42205647 -.00000013 +00000-0 +10000-3 0  9992
2 32394 065.3205 023.5531 0019921 351.6153 152.0683 02.13103457023836
1 32394U 07065B   11020.78139881 -.00000015  00000-0  10000-3 0  9999
2 32394 065.3206 023.5409 0019918 351.5971 067.7622 02.13103458 23841
1 32394U 07065B   11021.36790800 -.00000018 +00000-0 +10000-3 0  9991
2 32394 065.3208 023.5209 0019958 351.6551 157.6542 02.13103454023857
1 32394U 07065B   11022.15203851 -.00000022  00000-0  10000-3 0  9999
2 32394 065.3212 023.4941 0019980 351.6096 039.2588 02.13103458 23874
1 32394U 07065B   11022.31961303 -.00000023 +00000-0 +10000-3 0  9991
2 32394 065.3213 023.4884 0019981 351.5816 167.8443 02.13103457023878
